ONEWEB-0225             
1 48799U 21045AJ  26160.52891059 -.00000070  00000+0 -22067-3 0  9991
2 48799  87.9007 260.7233 0001375 102.8071 257.3213 13.15548750243414
ONEWEB-0215             
1 48800U 21045AK  26160.34666409  .00000194  00000+0  48212-3 0  9998
2 48800  87.9013 260.7417 0001263 111.2496 248.8769 13.15550440243262
ONEWEB-0216             
1 48801U 21045AL  26160.50831394  .00000147  00000+0  35539-3 0  9990
2 48801  87.9010 260.7246 0001978  98.7503 261.3851 13.15548568243294
ONEWEB-0239             
1 48802U 21045AM  26160.51306170  .00000068  00000+0  14740-3 0  9994
2 48802  87.8999 260.7307 0001385 122.2038 237.9227 13.15548307243338
ONEWEB-0249             
1 48967U 21060A   26160.45320010 -.00000001  00000+0 -35090-4 0  9996
2 48967  87.9100 230.3139 0002066 101.9410 258.1952 13.16595425238592
ONEWEB-0250             
1 48968U 21060B   26160.23248384 -.00000009  00000+0 -51138-4 0  9995
2 48968  87.9102 228.1398 0002560 120.9071 239.2317 13.25833213239169
ONEWEB-0252             
1 48970U 21060D   26160.48406985  .00000111  00000+0  25652-3 0  9991
2 48970  87.9102 230.2997 0001968  92.1813 267.9543 13.16593935238641
ONEWEB-0253             
1 48971U 21060E   26160.47298656  .00000049  00000+0  94622-4 0  9999
2 48971  87.9099 230.3076 0002022 102.6958 257.4399 13.16593152238571
ONEWEB-0254             
1 48972U 21060F   26160.48249131  .00000103  00000+0  23503-3 0  9995
2 48972  87.9099 230.3029 0001828 106.7153 253.4179 13.16594485238577
ONEWEB-0255             
1 48973U 21060G   26160.44449381 -.00000049  00000+0 -16279-3 0  9994
2 48973  87.9100 230.3171 0001911 101.6175 258.5171 13.16594054238648
ONEWEB-0256             
1 48974U 21060H   26160.47060400 -.00000016  00000+0 -75676-4 0  9990
2 48974  87.9094 230.3167 0002116  96.4672 263.6700 13.16592959238611
ONEWEB-0257             
1 48975U 21060J   26160.42707176  .00000061  00000+0  12543-3 0  9995
2 48975  87.9101 230.3119 0001911  97.3805 262.7543 13.16594540238565
ONEWEB-0258             
1 48976U 21060K   26160.42865716  .00000081  00000+0  17821-3 0  9997
2 48976  87.9102 230.3234 0002054 100.6503 259.4860 13.16594283238577
ONEWEB-0259             
1 48977U 21060L   26160.42232817  .00000060  00000+0  12349-3 0  9995
2 48977  87.9101 230.3240 0001970 104.1253 256.0097 13.16594824238601
ONEWEB-0260             
1 48978U 21060M   26160.48960807  .00000085  00000+0  18744-3 0  9991
2 48978  87.9095 230.3127 0002090  87.7050 272.4321 13.16593737238595
ONEWEB-0261             
1 48979U 21060N   26160.45951802  .00000027  00000+0  37011-4 0  9999
2 48979  87.9097 230.3187 0001738  97.0093 263.1236 13.16595909238644
ONEWEB-0262             
1 48980U 21060P   26160.43974148  .00000039  00000+0  68087-4 0  9997
2 48980  87.9100 230.3080 0001984 107.2896 252.8452 13.16594708238608
ONEWEB-0263             
1 48981U 21060Q   26160.47140627  .00000010  00000+0 -73643-5 0  9994
2 48981  87.9100 230.3136 0001693 101.3717 258.7604 13.16594338238574
ONEWEB-0264             
1 48982U 21060R   26160.43262184  .00000078  00000+0  17079-3 0  9996
2 48982  87.9102 230.3242 0001890  93.8761 266.2586 13.16594731238578
ONEWEB-0266             
1 48984U 21060T   26160.45398904 -.00000034  00000+0 -12169-3 0  9999
2 48984  87.9101 230.3107 0002139  99.8865 260.2507 13.16594022238566
ONEWEB-0267             
1 48985U 21060U   26160.46507462  .00000031  00000+0  46299-4 0  9999
2 48985  87.9101 230.3049 0001839  97.0384 263.0956 13.16594502238577
ONEWEB-0268             
1 48986U 21060V   26160.43340126  .00000016  00000+0  92901-5 0  9994
2 48986  87.9103 230.3207 0002069  95.4367 264.6999 13.16595939238833
ONEWEB-0269             
1 48987U 21060W   26160.49040662  .00000041  00000+0  73325-4 0  9999
2 48987  87.9090 230.3127 0002201  95.5905 264.5477 13.16594116238619
ONEWEB-0270             
1 48988U 21060X   26160.43182669  .00000018  00000+0  14500-4 0  9992
2 48988  87.9102 230.3225 0001736 105.7378 254.3944 13.16594595238643
ONEWEB-0271             
1 48989U 21060Y   26160.49515713  .00000093  00000+0  20953-3 0  9990
2 48989  87.9100 230.3004 0001775  99.4053 260.7278 13.16594349238658
ONEWEB-0272             
1 48990U 21060Z   26160.44130727 -.00000217  00000+0 -60066-3 0  9994
2 48990  87.9101 230.3229 0001915  90.2090 269.9260 13.16594524238596
ONEWEB-0273             
1 48991U 21060AA  26160.46349123  .00000040  00000+0  69755-4 0  9996
2 48991  87.9102 230.3176 0001928 100.7109 259.4239 13.16594579238579
ONEWEB-0274             
1 48992U 21060AB  26160.48881473  .00000032  00000+0  48960-4 0  9994
2 48992  87.9091 230.3157 0002012  89.2538 270.8823 13.16593368238614
ONEWEB-0275             
1 48993U 21060AC  26160.47774343  .00000096  00000+0  21758-3 0  9996
2 48993  87.9102 230.3062 0001977  96.4781 263.6575 13.16593723238543
ONEWEB-0276             
1 48994U 21060AD  26160.43498851  .00000041  00000+0  72537-4 0  9992
2 48994  87.9101 230.3141 0002023  93.9676 266.1686 13.16594769238552
ONEWEB-0277             
1 48995U 21060AE  26160.21966975 -.00000040  00000+0 -13705-3 0  9998
2 48995  87.9094 230.3665 0001896 100.4132 259.7213 13.16593467238517
