OBJECT_NAME,OBJECT_ID,EPOCH,MEAN_MOTION,ECCENTRICITY,INCLINATION,RA_OF_ASC_NODE,ARG_OF_PERICENTER,MEAN_ANOMALY,EPHEMERIS_TYPE,CLASSIFICATION_TYPE,NORAD_CAT_ID,ELEMENT_SET_NO,REV_AT_EPOCH,BSTAR,MEAN_MOTION_DOT,MEAN_MOTION_DDOT
ONEWEB-0225,2021-045AJ,2026-06-09T12:41:37.874976,13.15548750,.0001375,87.9007,260.7233,102.8071,257.3213,0,U,48799,999,24341,-.22067E-3,-.7E-6,0
ONEWEB-0215,2021-045AK,2026-06-09T08:19:11.777376,13.15550440,.0001263,87.9013,260.7417,111.2496,248.8769,0,U,48800,999,24326,.48212E-3,.194E-5,0
ONEWEB-0216,2021-045AL,2026-06-09T12:11:58.324416,13.15548568,.0001978,87.9010,260.7246,98.7503,261.3851,0,U,48801,999,24329,.35539E-3,.147E-5,0
ONEWEB-0239,2021-045AM,2026-06-09T12:18:48.530880,13.15548307,.0001385,87.8999,260.7307,122.2038,237.9227,0,U,48802,999,24333,.1474E-3,.68E-6,0
ONEWEB-0249,2021-060A,2026-06-09T10:52:36.488640,13.16595425,.0002066,87.9100,230.3139,101.9410,258.1952,0,U,48967,999,23859,-.3509E-4,-.1E-7,0
ONEWEB-0250,2021-060B,2026-06-09T05:34:46.603776,13.25833213,.000256,87.9102,228.1398,120.9071,239.2317,0,U,48968,999,23916,-.51138E-4,-.9E-7,0
ONEWEB-0252,2021-060D,2026-06-09T11:37:03.635040,13.16593935,.0001968,87.9102,230.2997,92.1813,267.9543,0,U,48970,999,23864,.25652E-3,.111E-5,0
ONEWEB-0253,2021-060E,2026-06-09T11:21:06.038784,13.16593152,.0002022,87.9099,230.3076,102.6958,257.4399,0,U,48971,999,23857,.94622E-4,.49E-6,0
ONEWEB-0254,2021-060F,2026-06-09T11:34:47.249184,13.16594485,.0001828,87.9099,230.3029,106.7153,253.4179,0,U,48972,999,23857,.23503E-3,.103E-5,0
ONEWEB-0255,2021-060G,2026-06-09T10:40:04.265184,13.16594054,.0001911,87.9100,230.3171,101.6175,258.5171,0,U,48973,999,23864,-.16279E-3,-.49E-6,0
ONEWEB-0256,2021-060H,2026-06-09T11:17:40.185600,13.16592959,.0002116,87.9094,230.3167,96.4672,263.6700,0,U,48974,999,23861,-.75676E-4,-.16E-6,0
ONEWEB-0257,2021-060J,2026-06-09T10:14:59.000064,13.16594540,.0001911,87.9101,230.3119,97.3805,262.7543,0,U,48975,999,23856,.12543E-3,.61E-6,0
ONEWEB-0258,2021-060K,2026-06-09T10:17:15.978624,13.16594283,.0002054,87.9102,230.3234,100.6503,259.4860,0,U,48976,999,23857,.17821E-3,.81E-6,0
ONEWEB-0259,2021-060L,2026-06-09T10:08:09.153888,13.16594824,.000197,87.9101,230.3240,104.1253,256.0097,0,U,48977,999,23860,.12349E-3,.6E-6,0
ONEWEB-0260,2021-060M,2026-06-09T11:45:02.137248,13.16593737,.000209,87.9095,230.3127,87.7050,272.4321,0,U,48978,999,23859,.18744E-3,.85E-6,0
ONEWEB-0261,2021-060N,2026-06-09T11:01:42.356928,13.16595909,.0001738,87.9097,230.3187,97.0093,263.1236,0,U,48979,999,23864,.37011E-4,.27E-6,0
ONEWEB-0262,2021-060P,2026-06-09T10:33:13.663872,13.16594708,.0001984,87.9100,230.3080,107.2896,252.8452,0,U,48980,999,23860,.68087E-4,.39E-6,0
ONEWEB-0263,2021-060Q,2026-06-09T11:18:49.501728,13.16594338,.0001693,87.9100,230.3136,101.3717,258.7604,0,U,48981,999,23857,-.73643E-5,.1E-6,0
ONEWEB-0264,2021-060R,2026-06-09T10:22:58.526976,13.16594731,.000189,87.9102,230.3242,93.8761,266.2586,0,U,48982,999,23857,.17079E-3,.78E-6,0
ONEWEB-0266,2021-060T,2026-06-09T10:53:44.653056,13.16594022,.0002139,87.9101,230.3107,99.8865,260.2507,0,U,48984,999,23856,-.12169E-3,-.34E-6,0
ONEWEB-0267,2021-060U,2026-06-09T11:09:42.447168,13.16594502,.0001839,87.9101,230.3049,97.0384,263.0956,0,U,48985,999,23857,.46299E-4,.31E-6,0
ONEWEB-0268,2021-060V,2026-06-09T10:24:05.868864,13.16595939,.0002069,87.9103,230.3207,95.4367,264.6999,0,U,48986,999,23883,.92901E-5,.16E-6,0
ONEWEB-0269,2021-060W,2026-06-09T11:46:11.131968,13.16594116,.0002201,87.9090,230.3127,95.5905,264.5477,0,U,48987,999,23861,.73325E-4,.41E-6,0
ONEWEB-0270,2021-060X,2026-06-09T10:21:49.826016,13.16594595,.0001736,87.9102,230.3225,105.7378,254.3944,0,U,48988,999,23864,.145E-4,.18E-6,0
ONEWEB-0271,2021-060Y,2026-06-09T11:53:01.576032,13.16594349,.0001775,87.9100,230.3004,99.4053,260.7278,0,U,48989,999,23865,.20953E-3,.93E-6,0
ONEWEB-0272,2021-060Z,2026-06-09T10:35:28.948128,13.16594524,.0001915,87.9101,230.3229,90.2090,269.9260,0,U,48990,999,23859,-.60066E-3,-.217E-5,0
ONEWEB-0273,2021-060AA,2026-06-09T11:07:25.642272,13.16594579,.0001928,87.9102,230.3176,100.7109,259.4239,0,U,48991,999,23857,.69755E-4,.4E-6,0
ONEWEB-0274,2021-060AB,2026-06-09T11:43:53.592672,13.16593368,.0002012,87.9091,230.3157,89.2538,270.8823,0,U,48992,999,23861,.4896E-4,.32E-6,0
ONEWEB-0275,2021-060AC,2026-06-09T11:27:57.032352,13.16593723,.0001977,87.9102,230.3062,96.4781,263.6575,0,U,48993,999,23854,.21758E-3,.96E-6,0
ONEWEB-0276,2021-060AD,2026-06-09T10:26:23.007264,13.16594769,.0002023,87.9101,230.3141,93.9676,266.1686,0,U,48994,999,23855,.72537E-4,.41E-6,0
ONEWEB-0277,2021-060AE,2026-06-09T05:16:19.466400,13.16593467,.0001896,87.9094,230.3665,100.4132,259.7213,0,U,48995,999,23851,-.13705E-3,-.4E-6,0
